NORAD_CAT_ID,OBJECT_NAME,OBJECT_TYPE,EPOCH,MEAN_MOTION,ECCENTRICITY,INCLINATION,RA_OF_ASC_NODE,ARG_OF_PERICENTER,MEAN_ANOMALY,BSTAR,MEAN_MOTION_DOT,MEAN_MOTION_DDOT,TLE_LINE0,TLE_LINE1,TLE_LINE2,SEMIMAJOR_AXIS,PERIOD,APOGEE,PERIGEE,DECAYED
54766.0,STARLINK-5471,PAYLOAD,2023-09-30 17:23:20,15.08842556,0.000129,53.217,83.8096,79.0424,281.0713,9.1439e-05,1.168e-05,0.0,0 STARLINK-5471,1 54766U 22175J   23273.72454238  .00001168  00000-0  91439-4 0  9993,2 54766  53.2170  83.8096 0001290  79.0424 281.0713 15.08842556 43250,6917.873,95.437,540.63,538.845,0.0
54766.0,STARLINK-5471,PAYLOAD,2023-10-01 10:52:34,15.08846924,0.0001198,53.2155,80.5417,97.697,262.4158,0.00010177,1.332e-05,0.0,0 STARLINK-5471,1 54766U 22175J   23274.45317995  .00001332  00000-0  10177-3 0  9994,2 54766  53.2155  80.5417 0001198  97.6970 262.4158 15.08846924 45524,6917.859,95.437,540.553,538.895,0.0
54766.0,STARLINK-5471,PAYLOAD,2023-10-01 18:49:30,15.08851208,0.0001251,53.2158,79.0534,90.8987,269.2148,0.00024279,3.579e-05,0.0,0 STARLINK-5471,1 54766U 22175J   23274.78437774  .00003579  00000-0  24279-3 0  9991,2 54766  53.2158  79.0534 0001251  90.8987 269.2148 15.08851208 43414,6917.846,95.437,540.577,538.846,0.0
54766.0,STARLINK-5471,PAYLOAD,2023-10-02 10:43:22,15.08838376,0.0001463,53.215,76.0824,87.3556,272.7604,7.0633e-05,8.36e-06,0.0,0 STARLINK-5471,1 54766U 22175J   23275.44678414  .00000836  00000-0  70633-4 0  9992,2 54766  53.2150  76.0824 0001463  87.3556 272.7604 15.08838376 43511,6917.885,95.438,540.762,538.738,0.0
54766.0,STARLINK-5471,PAYLOAD,2023-10-02 15:29:31,15.0883674,0.0001694,53.2159,75.188,91.0408,269.0778,9.6685e-06,-1.34e-06,0.0,0 STARLINK-5471,1 54766U 22175J   23275.64550591 -.00000134  00000-0  96685-5 0  9997,2 54766  53.2159  75.1880 0001694  91.0408 269.0778 15.08836740 45703,6917.89,95.438,540.927,538.583,0.0
54766.0,STARLINK-5471,PAYLOAD,2023-10-03 13:44:55,15.08844301,0.0001446,53.2167,71.0246,93.5903,266.5254,0.00011055,1.472e-05,0.0,0 STARLINK-5471,1 54766U 22175J   23276.57286494  .00001472  00000-0  11055-3 0  9999,2 54766  53.2167  71.0246 0001446  93.5903 266.5254 15.08844301 45843,6917.867,95.437,540.733,538.732,0.0
54766.0,STARLINK-5471,PAYLOAD,2023-10-03 16:55:41,15.088446,0.0001471,53.2165,70.4303,86.8236,273.2925,0.00022303,3.264e-05,0.0,0 STARLINK-5471,1 54766U 22175J   23276.70534562  .00003264  00000-0  22303-3 0  9995,2 54766  53.2165  70.4303 0001471  86.8236 273.2925 15.08844600 43705,6917.866,95.437,540.749,538.714,0.0
54766.0,STARLINK-5471,PAYLOAD,2023-10-04 13:35:42,15.08849117,0.0001608,53.217,66.565,86.7852,273.3324,0.00032207,4.843e-05,0.0,0 STARLINK-5471,1 54766U 22175J   23277.56646426  .00004843  00000-0  32207-3 0  9991,2 54766  53.2170  66.5650 0001608  86.7852 273.3324 15.08849117 45992,6917.853,95.437,540.83,538.605,0.0
54766.0,STARLINK-5471,PAYLOAD,2023-10-04 16:46:28,15.08855652,0.00015,53.2172,65.9693,87.8038,272.3125,0.00040137,6.108e-05,0.0,0 STARLINK-5471,1 54766U 22175J   23277.69894088  .00006108  00000-0  40137-3 0  9991,2 54766  53.2172  65.9693 0001500  87.8038 272.3125 15.08855652 46016,6917.833,95.437,540.735,538.66,0.0
54766.0,STARLINK-5471,PAYLOAD,2023-10-05 10:15:43,15.08844584,0.0001585,53.2178,62.6994,85.1981,274.9192,0.00010631,1.405e-05,0.0,0 STARLINK-5471,1 54766U 22175J   23278.42758403  .00001405  00000-0  10631-3 0  9994,2 54766  53.2178  62.6994 0001585  85.1981 274.9192 15.08844584 43966,6917.866,95.437,540.828,538.635,0.0
54766.0,STARLINK-5471,PAYLOAD,2023-10-05 13:26:29,15.08843896,0.0001418,53.2179,62.105,92.7218,267.3936,8.0253e-05,9.9e-06,0.0,0 STARLINK-5471,1 54766U 22175J   23278.56006362  .00000990  00000-0  80253-4 0  9995,2 54766  53.2179  62.1050 0001418  92.7218 267.3936 15.08843896 46147,6917.868,95.437,540.714,538.753,0.0
54766.0,STARLINK-5471,PAYLOAD,2023-10-05 16:37:15,15.08843252,0.0001551,53.2183,61.5109,92.2493,267.8676,4.1694e-05,3.76e-06,0.0,0 STARLINK-5471,1 54766U 22175J   23278.69254349  .00000376  00000-0  41694-4 0  9993,2 54766  53.2183  61.5109 0001551  92.2493 267.8676 15.08843252 46162,6917.87,95.437,540.808,538.662,0.0
54766.0,STARLINK-5471,PAYLOAD,2023-10-06 10:06:30,15.08834952,0.0001504,53.2186,58.2394,98.1261,261.9902,-7.0976e-05,-1.417e-05,0.0,0 STARLINK-5471,1 54766U 22175J   23279.42118733 -.00001417  00000-0 -70976-4 0  9995,2 54766  53.2186  58.2394 0001504  98.1261 261.9902 15.08834952 44117,6917.896,95.438,540.801,538.72,0.0
54766.0,STARLINK-5471,PAYLOAD,2023-10-06 13:17:16,15.08837323,0.0001478,53.2183,57.6441,90.6358,269.4804,-9.2996e-05,-1.768e-05,0.0,0 STARLINK-5471,1 54766U 22175J   23279.55366710 -.00001768  00000-0 -92996-4 0  9994,2 54766  53.2183  57.6441 0001478  90.6358 269.4804 15.08837323 46294,6917.889,95.438,540.776,538.731,0.0
54766.0,STARLINK-5471,PAYLOAD,2023-10-06 16:28:03,15.08838542,0.0001373,53.2185,57.0508,83.4867,276.6282,4.9854e-06,-2.09e-06,0.0,0 STARLINK-5471,1 54766U 22175J   23279.68614848 -.00000209  00000-0  49854-5 0  9990,2 54766  53.2185  57.0508 0001373  83.4867 276.6282 15.08838542 46310,6917.885,95.438,540.7,538.8,0.0
54766.0,STARLINK-5471,PAYLOAD,2023-10-07 13:08:03,15.08842045,0.0001171,53.2176,53.1844,77.5527,282.5596,0.00017045,2.426e-05,0.0,0 STARLINK-5471,1 54766U 22175J   23280.54726806  .00002426  00000-0  17045-3 0  9992,2 54766  53.2176  53.1844 0001171  77.5527 282.5596 15.08842045 46444,6917.874,95.437,540.549,538.929,0.0
54766.0,STARLINK-5471,PAYLOAD,2023-10-07 17:54:12,15.08855375,0.0001138,53.2186,52.2934,81.8216,278.2905,0.0004194,6.396e-05,0.0,0 STARLINK-5471,1 54766U 22175J   23280.74598353  .00006396  00000-0  41940-3 0  9999,2 54766  53.2186  52.2934 0001138  81.8216 278.2905 15.08855375 44311,6917.833,95.437,540.486,538.911,0.0
54766.0,STARLINK-5471,PAYLOAD,2023-10-07 19:29:35,15.08858905,0.0001261,53.2177,51.9954,80.8807,279.2328,0.00050787,7.808e-05,0.0,0 STARLINK-5471,1 54766U 22175J   23280.81222202  .00007808  00000-0  50787-3 0  9992,2 54766  53.2177  51.9954 0001261  80.8807 279.2328 15.08858905 46483,6917.823,95.436,540.56,538.815,0.0
54766.0,STARLINK-5471,PAYLOAD,2023-10-08 01:51:09,15.08838319,0.0001481,53.2171,50.8008,78.9399,281.176,0.00016498,2.339e-05,0.0,0 STARLINK-5471,1 54766U 22175J   23281.07718968  .00002339  00000-0  16498-3 0  9995,2 54766  53.2171  50.8008 0001481  78.9399 281.1760 15.08838319 44367,6917.886,95.438,540.775,538.726,0.0
54766.0,STARLINK-5471,PAYLOAD,2023-10-08 12:58:51,15.08839563,0.00015,53.2173,48.7245,80.094,280.0222,0.00010515,1.386e-05,0.0,0 STARLINK-5471,1 54766U 22175J   23281.54087144  .00001386  00000-0  10515-3 0  9997,2 54766  53.2173  48.7245 0001500  80.0940 280.0222 15.08839563 46596,6917.882,95.438,540.784,538.709,0.0
54766.0,STARLINK-5471,PAYLOAD,2023-10-08 19:20:23,15.0885003,0.0001619,53.2172,47.5348,80.5954,279.5221,0.00068992,0.00010712,0.0,0 STARLINK-5471,1 54766U 22175J   23281.80582948  .00010712  00000-0  68992-3 0  9993,2 54766  53.2172  47.5348 0001619  80.5954 279.5221 15.08850030 46636,6917.85,95.437,540.835,538.595,0.0
54766.0,STARLINK-5471,PAYLOAD,2023-10-09 08:03:29,15.08835084,0.0001482,53.2167,45.1557,96.6826,263.4335,0.0003286,4.945e-05,0.0,0 STARLINK-5471,1 54766U 22175J   23282.33575291  .00004945  00000-0  32860-3 0  9991,2 54766  53.2167  45.1557 0001482  96.6826 263.4335 15.08835084 44559,6917.895,95.438,540.786,538.735,0.0
54766.0,STARLINK-5471,PAYLOAD,2023-10-09 14:25:01,15.08845416,0.0001375,53.2164,43.9674,91.2442,268.8708,0.00026118,3.872e-05,0.0,0 STARLINK-5471,1 54766U 22175J   23282.60070948  .00003872  00000-0  26118-3 0  9997,2 54766  53.2164  43.9674 0001375  91.2442 268.8708 15.08845416 46755,6917.864,95.437,540.68,538.778,0.0
54766.0,STARLINK-5471,PAYLOAD,2023-10-09 16:00:24,15.08854687,0.0001321,53.218,43.6674,98.4052,261.709,0.00047906,7.348e-05,0.0,0 STARLINK-5471,1 54766U 22175J   23282.66694630  .00007348  00000-0  47906-3 0  9993,2 54766  53.2180  43.6674 0001321  98.4052 261.7090 15.08854687 44605,6917.835,95.437,540.614,538.787,0.0
54766.0,STARLINK-5471,PAYLOAD,2023-10-10 07:54:15,15.08847494,0.0001601,53.2192,40.6964,84.4871,275.6303,0.00030129,4.511e-05,0.0,0 STARLINK-5471,1 54766U 22175J   23283.32934997  .00004511  00000-0  30129-3 0  9998,2 54766  53.2192  40.6964 0001601  84.4871 275.6303 15.08847494 44702,6917.857,95.437,540.83,538.615,0.0
54766.0,STARLINK-5471,PAYLOAD,2023-10-10 14:15:48,15.08855902,0.0001553,53.2188,39.5073,94.5225,265.5944,0.00040848,6.222e-05,0.0,0 STARLINK-5471,1 54766U 22175J   23283.59430562  .00006222  00000-0  40848-3 0  9996,2 54766  53.2188  39.5073 0001553  94.5225 265.5944 15.08855902 46902,6917.832,95.437,540.771,538.622,0.0
54766.0,STARLINK-5471,PAYLOAD,2023-10-10 19:01:56,15.08870643,0.0001413,53.218,38.6125,97.7958,262.3195,0.00087125,0.00013617,0.0,0 STARLINK-5471,1 54766U 22175J   23283.79301936  .00013617  00000-0  87125-3 0  9995,2 54766  53.2180  38.6125 0001413  97.7958 262.3195 15.08870643 46930,6917.787,95.436,540.629,538.674,0.0
54766.0,STARLINK-5471,PAYLOAD,2023-10-11 14:06:35,15.0883984,0.0001599,53.2187,35.0471,81.6454,278.4719,0.00073663,0.00011455,0.0,0 STARLINK-5471,1 54766U 22175J   23284.58791189  .00011455  00000-0  73663-3 0  9996,2 54766  53.2187  35.0471 0001599  81.6454 278.4719 15.08839840 44897,6917.881,95.438,540.852,538.64,0.0
54766.0,STARLINK-5471,PAYLOAD,2023-10-11 17:17:21,15.08847277,0.0001491,53.218,34.4509,72.3413,287.7742,0.0021093,0.00033448,0.0,0 STARLINK-5471,1 54766U 22175J   23284.72039257  .00033448  00000-0  21093-2 0  9998,2 54766  53.2180  34.4509 0001491  72.3413 287.7742 15.08847277 44913,6917.858,95.437,540.755,538.692,0.0
54766.0,STARLINK-5471,PAYLOAD,2023-10-12 13:57:22,15.08860869,0.0001542,53.2189,30.5853,75.8878,284.2286,0.0018884,0.00029911,0.0,0 STARLINK-5471,1 54766U 22175J   23285.58151454  .00029911  00000-0  18884-2 0  9991,2 54766  53.2189  30.5853 0001542  75.8878 284.2286 15.08860869 47203,6917.817,95.436,540.748,538.615,0.0
